0 SL-8 DEB
1 25085U 91009CX  13272.44361156 -.00000004  00000-0  10000-3 0  4909
2 25085 074.1114 291.4402 0187740 318.4146 040.2855 12.22236484843616
0 SL-8 DEB
1 25085U 91009CX  13278.00894871 -.00000004  00000-0  10000-3 0  4913
2 25085 074.1090 284.4520 0188666 310.1079 048.4253 12.22238567844295
0 SL-8 DEB
1 25085U 91009CX  13285.94772184 -.00000004  00000-0  10000-3 0  4927
2 25085 074.0885 274.4621 0182438 299.2435 059.1573 12.22242256845263
